0 CZ-4 DEB
1 26199U 99057CM  13281.88401127  .00002371  00000-0  64250-3 0  4474
2 26199 098.3144 243.2978 0094510 066.3954 353.5206 14.45961966712594
0 CZ-4 DEB
1 26199U 99057CM  13286.86488317  .00002702  00000-0  73020-3 0  4498
2 26199 098.3142 248.1816 0094424 051.3878 001.2923 14.45982006713312
0 CZ-4 DEB
1 26199U 99057CM  13289.16378112  .00003828  00000-0  10290-2 0  4506
2 26199 098.3148 250.4359 0094293 044.5015 088.2477 14.45997741713644
0 CZ-4 DEB
1 26199U 99057CM  13291.51361360  .00003435  00000-0  92450-3 0  4519
2 26199 098.3156 252.7401 0094185 037.4701 080.4652 14.46012335713983
0 CZ-4 DEB
1 26199U 99057CM  13293.85497834  .00003996  00000-0  10734-2 0  4521
2 26199 098.3162 255.0364 0094020 030.4137 028.7836 14.46026514714320
0 CZ-4 DEB
1 26199U 99057CM  13295.86024659  .00004245  00000-0  11394-2 0  4537
2 26199 098.3164 257.0035 0093873 024.3748 027.5966 14.46040381714615
